[{"OBJECT_NAME":"YAOGAN-36 02B","OBJECT_ID":"2022-133B","EPOCH":"2026-03-09T22:42:31.775904","MEAN_MOTION":15.30199518,"ECCENTRICITY":0.00056841,"INCLINATION":34.9983,"RA_OF_ASC_NODE":22.5268,"ARG_OF_PERICENTER":273.0351,"MEAN_ANOMALY":86.9715,"EPHEMERIS_TYPE":0,"CLASSIFICATION_TYPE":"U","NORAD_CAT_ID":54043,"ELEMENT_SET_NO":999,"REV_AT_EPOCH":18962,"BSTAR":0.00051218814,"MEAN_MOTION_DOT":0.00015352,"MEAN_MOTION_DDOT":0},{"OBJECT_NAME":"STARLINK-32159","OBJECT_ID":"2024-132R","EPOCH":"2026-03-09T08:34:27.071328","MEAN_MOTION":15.30169192,"ECCENTRICITY":0.00013406,"INCLINATION":53.161,"RA_OF_ASC_NODE":53.6754,"ARG_OF_PERICENTER":85.2183,"MEAN_ANOMALY":274.8971,"EPHEMERIS_TYPE":0,"CLASSIFICATION_TYPE":"U","NORAD_CAT_ID":60293,"ELEMENT_SET_NO":999,"REV_AT_EPOCH":9151,"BSTAR":-9.0282338e-5,"MEAN_MOTION_DOT":-3.029e-5,"MEAN_MOTION_DDOT":0}]
